{
  "norad_id": 59610,
  "name": "STARLINK-31729",
  "history": [
    {
      "epoch": "2026-03-28T20:56:29.861376Z",
      "apogee_km": 484.05707171061476,
      "perigee_km": 482.034395040816,
      "latitude_deg": -7.739662264390099e-06,
      "longitude_deg": 145.9434913232975,
      "height_km": 482.88856004966885,
      "semi_major_axis_km": 6861.1827333757155,
      "eccentricity": 0.0001474,
      "inclination_deg": 43.0035,
      "raan_deg": 286.3547,
      "arg_perigee_deg": 266.2761,
      "mean_anomaly_deg": 93.7922,
      "mean_motion_rev_day": 15.27581123
    },
    {
      "epoch": "2026-03-29T22:03:02.134944Z",
      "apogee_km": 483.67131787780727,
      "perigee_km": 482.513142383762,
      "latitude_deg": -8.86230759275785e-06,
      "longitude_deg": 122.37182879746956,
      "height_km": 482.63483200446785,
      "semi_major_axis_km": 6861.229230130784,
      "eccentricity": 8.44e-05,
      "inclination_deg": 43.0035,
      "raan_deg": 280.4487,
      "arg_perigee_deg": 293.8314,
      "mean_anomaly_deg": 66.2449,
      "mean_motion_rev_day": 15.27565595
    },
    {
      "epoch": "2026-03-30T05:53:48.792768Z",
      "apogee_km": 483.18440093623303,
      "perigee_km": 482.9545505192964,
      "latitude_deg": -2.6936148758490207e-05,
      "longitude_deg": 2.506666413791532,
      "height_km": 482.73269151698753,
      "semi_major_axis_km": 6861.206475727765,
      "eccentricity": 1.675e-05,
      "inclination_deg": 43.0048,
      "raan_deg": 278.6002,
      "arg_perigee_deg": 11.2581,
      "mean_anomaly_deg": 348.8274,
      "mean_motion_rev_day": 15.27573194
    },
    {
      "epoch": "2026-03-30T12:10:25.289760Z",
      "apogee_km": 484.17598026681935,
      "perigee_km": 481.9207086440965,
      "latitude_deg": -4.31958121091306e-05,
      "longitude_deg": -93.37940063190136,
      "height_km": 482.88770017267706,
      "semi_major_axis_km": 6861.185344455458,
      "eccentricity": 0.00016435,
      "inclination_deg": 43.0043,
      "raan_deg": 277.124,
      "arg_perigee_deg": 266.849,
      "mean_anomaly_deg": 93.2173,
      "mean_motion_rev_day": 15.27580251
    },
    {
      "epoch": "2026-03-30T21:35:20.955840Z",
      "apogee_km": 483.9975570665565,
      "perigee_km": 482.1422867148776,
      "latitude_deg": -2.0889894050375934e-05,
      "longitude_deg": 122.78780228813078,
      "height_km": 482.76544816415617,
      "semi_major_axis_km": 6861.206921890717,
      "eccentricity": 0.0001352,
      "inclination_deg": 43.0035,
      "raan_deg": 274.9098,
      "arg_perigee_deg": 275.0426,
      "mean_anomaly_deg": 85.0271,
      "mean_motion_rev_day": 15.27573045
    },
    {
      "epoch": "2026-03-31T19:33:33.331104Z",
      "apogee_km": 483.7028111464533,
      "perigee_km": 482.3127432145966,
      "latitude_deg": 4.839980559670004e-05,
      "longitude_deg": 147.16503371549172,
      "height_km": 482.4915315949748,
      "semi_major_axis_km": 6861.144777180524,
      "eccentricity": 0.0001013,
      "inclination_deg": 43.002,
      "raan_deg": 269.7408,
      "arg_perigee_deg": 294.9142,
      "mean_anomaly_deg": 65.1605,
      "mean_motion_rev_day": 15.27593799
    },
    {
      "epoch": "2026-04-01T19:05:53.141280Z",
      "apogee_km": 483.68133297497843,
      "perigee_km": 482.3063623531061,
      "latitude_deg": 1.2059030513737463e-05,
      "longitude_deg": 147.57484815287702,
      "height_km": 482.7646515142502,
      "semi_major_axis_km": 6861.1308476640415,
      "eccentricity": 0.0001002,
      "inclination_deg": 43.0025,
      "raan_deg": 264.1999,
      "arg_perigee_deg": 270.4862,
      "mean_anomaly_deg": 89.5875,
      "mean_motion_rev_day": 15.27598451
    },
    {
      "epoch": "2026-04-02T18:38:13.958880Z",
      "apogee_km": 483.7497865533869,
      "perigee_km": 482.3418718368366,
      "latitude_deg": -1.3851019733515742e-05,
      "longitude_deg": 147.97876417373655,
      "height_km": 483.30515652737745,
      "semi_major_axis_km": 6861.1828291951115,
      "eccentricity": 0.0001026,
      "inclination_deg": 43.0012,
      "raan_deg": 258.6573,
      "arg_perigee_deg": 226.6617,
      "mean_anomaly_deg": 133.4149,
      "mean_motion_rev_day": 15.27581091
    },
    {
      "epoch": "2026-04-03T18:10:34.183776Z",
      "apogee_km": 483.5361669991962,
      "perigee_km": 482.5330637090301,
      "latitude_deg": 2.0801718412738874e-05,
      "longitude_deg": 148.39022044482905,
      "height_km": 483.0461595521025,
      "semi_major_axis_km": 6861.171615354113,
      "eccentricity": 7.31e-05,
      "inclination_deg": 43.001,
      "raan_deg": 253.1197,
      "arg_perigee_deg": 242.0043,
      "mean_anomaly_deg": 118.0735,
      "mean_motion_rev_day": 15.27584836
    },
    {
      "epoch": "2026-04-04T11:26:18.336768Z",
      "apogee_km": 483.48726886420627,
      "perigee_km": 482.64196882476426,
      "latitude_deg": 1.6959629712323386e-06,
      "longitude_deg": -115.31350722202313,
      "height_km": 482.7713076881783,
      "semi_major_axis_km": 6861.201618844485,
      "eccentricity": 6.16e-05,
      "inclination_deg": 43.0015,
      "raan_deg": 249.0589,
      "arg_perigee_deg": 279.4634,
      "mean_anomaly_deg": 80.6148,
      "mean_motion_rev_day": 15.27574816
    },
    {
      "epoch": "2026-04-05T10:58:39.967392Z",
      "apogee_km": 483.5966375955013,
      "perigee_km": 482.57212001921926,
      "latitude_deg": 2.574480345287837e-05,
      "longitude_deg": -114.90933691190152,
      "height_km": 482.80161590731865,
      "semi_major_axis_km": 6861.22137880736,
      "eccentricity": 7.466e-05,
      "inclination_deg": 43.0018,
      "raan_deg": 243.5199,
      "arg_perigee_deg": 276.6247,
      "mean_anomaly_deg": 83.452,
      "mean_motion_rev_day": 15.27568217
    }
  ]
}